ICEYE-X53               
1 64584U 25135BJ  26197.29183859  .00001286  00000+0  10579-3 0  9994
2 64584  97.7360 313.9454 0001964 165.2042 194.9240 15.00894897 58441
ICEYE-X65               
1 66300U 25248H   26196.76948830  .00001535  00000+0  11438-3 0  9998
2 66300  45.4058 343.8797 0005577 202.3635 157.7004 15.07930450 39830
ICEYE-X66               
1 66301U 25248J   26196.76670793  .00001585  00000+0  11378-3 0  9997
2 66301  45.4025 342.9691 0005241 198.2073 161.8622 15.09179173 39825
ICEYE-X67               
1 66302U 25248K   26196.46042397  .00001599  00000+0  11472-3 0  9998
2 66302  45.4062 344.1616 0006701 196.7791 163.2870 15.09160092 39797
ICEYE-X58               
1 66751U 25276CP  26197.20279813  .00001336  00000+0  70321-4 0  9993
2 66751  97.4197 270.0607 0002240 208.3056 151.8056 15.17309488 34816
ICEYE-X59               
1 66752U 25276CQ  26197.14592109  .00002627  00000+0  21153-3 0  9995
2 66752  97.4391 267.2057 0001099 139.2495 220.8812 15.00758187 34611
ICEYE-X60               
1 66753U 25276CR  26197.19306042  .00002192  00000+0  13552-3 0  9991
2 66753  97.4136 269.0035 0000731 149.8638 210.2635 15.10856389 34747
ICEYE-X61               
1 66754U 25276CS  26197.15422347  .00001526  00000+0  76983-4 0  9993
2 66754  97.4194 270.1044 0002168 211.0636 149.0470 15.18611690 34817
ICEYE-X62               
1 66755U 25276CT  26196.75540714  .00001204  00000+0  77599-4 0  9995
2 66755  97.4198 268.0683 0000875 231.5661 128.5490 15.10146432 34649
ICEYE-X63               
1 67372U 26004K   26196.99106723  .00000433  00000+0  52627-4 0  9993
2 67372  97.8015 195.1818 0005382  49.7418 310.4269 14.88349834 27580
ICEYE-X64               
1 67373U 26004L   26197.30895478  .00000587  00000+0  69872-4 0  9992
2 67373  97.8028 195.4136 0007197  51.1051 309.0806 14.87988657 27624
ICEYE-X71               
1 68494U 26067CG  26195.36222958  .00001475  00000+0  15178-3 0  9993
2 68494  97.7625 153.1825 0001068 349.9955  10.1242 14.91790708 15779
ICEYE-X73               
1 68496U 26067CJ  26197.13353133  .00000958  00000+0  99170-4 0  9992
2 68496  97.7623 155.0139 0001564 147.1550 212.9766 14.92350684 16048
ICEYE-X75               
1 68497U 26067CK  26196.86989421  .00000308  00000+0  35746-4 0  9995
2 68497  97.7606 154.7207 0001513 143.9610 216.1711 14.92174355 16008
ICEYE-X74               
1 68500U 26067CN  26196.43456247  .00001396  00000+0  14400-3 0  9999
2 68500  97.7633 154.2488 0000809 341.6467  18.4722 14.91793727 15938
ICEYE-X76               
1 68502U 26067CQ  26196.83292066  .00000652  00000+0  70271-4 0  9995
2 68502  97.7640 154.6594 0000517 310.0515  50.0658 14.91751586 15993
