{"fetched_at":"2026-07-16T17:46:41.220Z","source":"https://celestrak.org/NORAD/elements/gp.php?NAME=ICEYE&FORMAT=JSON","constellation":"iceye","records":[{"OBJECT_NAME":"ICEYE-X53","OBJECT_ID":"2025-135BJ","EPOCH":"2026-07-16T07:00:14.854176","CLASSIFICATION_TYPE":"U","MEAN_MOTION":15.00894897,"ECCENTRICITY":0.00019648,"INCLINATION":97.736,"RA_OF_ASC_NODE":313.9454,"ARG_OF_PERICENTER":165.2042,"MEAN_ANOMALY":194.924,"EPHEMERIS_TYPE":0,"NORAD_CAT_ID":64584,"ELEMENT_SET_NO":999,"REV_AT_EPOCH":5844,"BSTAR":0.00010579031,"MEAN_MOTION_DOT":0.00001286,"MEAN_MOTION_DDOT":0},{"OBJECT_NAME":"ICEYE-X65","OBJECT_ID":"2025-248H","EPOCH":"2026-07-15T18:28:03.789120","CLASSIFICATION_TYPE":"U","MEAN_MOTION":15.0793045,"ECCENTRICITY":0.00055776,"INCLINATION":45.4058,"RA_OF_ASC_NODE":343.8797,"ARG_OF_PERICENTER":202.3635,"MEAN_ANOMALY":157.7004,"EPHEMERIS_TYPE":0,"NORAD_CAT_ID":66300,"ELEMENT_SET_NO":999,"REV_AT_EPOCH":3983,"BSTAR":0.00011438186,"MEAN_MOTION_DOT":0.00001535,"MEAN_MOTION_DDOT":0},{"OBJECT_NAME":"ICEYE-X66","OBJECT_ID":"2025-248J","EPOCH":"2026-07-15T18:24:03.565152","CLASSIFICATION_TYPE":"U","MEAN_MOTION":15.09179173,"ECCENTRICITY":0.00052416,"INCLINATION":45.4025,"RA_OF_ASC_NODE":342.9691,"ARG_OF_PERICENTER":198.2073,"MEAN_ANOMALY":161.8622,"EPHEMERIS_TYPE":0,"NORAD_CAT_ID":66301,"ELEMENT_SET_NO":999,"REV_AT_EPOCH":3982,"BSTAR":0.00011377776,"MEAN_MOTION_DOT":0.00001585,"MEAN_MOTION_DDOT":0},{"OBJECT_NAME":"ICEYE-X67","OBJECT_ID":"2025-248K","EPOCH":"2026-07-15T11:03:00.631008","CLASSIFICATION_TYPE":"U","MEAN_MOTION":15.09160092,"ECCENTRICITY":0.00067019,"INCLINATION":45.4062,"RA_OF_ASC_NODE":344.1616,"ARG_OF_PERICENTER":196.7791,"MEAN_ANOMALY":163.287,"EPHEMERIS_TYPE":0,"NORAD_CAT_ID":66302,"ELEMENT_SET_NO":999,"REV_AT_EPOCH":3979,"BSTAR":0.00011472422,"MEAN_MOTION_DOT":0.00001599,"MEAN_MOTION_DDOT":0},{"OBJECT_NAME":"ICEYE-X58","OBJECT_ID":"2025-276CP","EPOCH":"2026-07-16T04:52:01.758432","CLASSIFICATION_TYPE":"U","MEAN_MOTION":15.17309488,"ECCENTRICITY":0.00022403,"INCLINATION":97.4197,"RA_OF_ASC_NODE":270.0607,"ARG_OF_PERICENTER":208.3056,"MEAN_ANOMALY":151.8056,"EPHEMERIS_TYPE":0,"NORAD_CAT_ID":66751,"ELEMENT_SET_NO":999,"REV_AT_EPOCH":3481,"BSTAR":0.000070320739,"MEAN_MOTION_DOT":0.00001336,"MEAN_MOTION_DDOT":0},{"OBJECT_NAME":"ICEYE-X59","OBJECT_ID":"2025-276CQ","EPOCH":"2026-07-16T03:30:07.582176","CLASSIFICATION_TYPE":"U","MEAN_MOTION":15.00758187,"ECCENTRICITY":0.00010994,"INCLINATION":97.4391,"RA_OF_ASC_NODE":267.2057,"ARG_OF_PERICENTER":139.2495,"MEAN_ANOMALY":220.8812,"EPHEMERIS_TYPE":0,"NORAD_CAT_ID":66752,"ELEMENT_SET_NO":999,"REV_AT_EPOCH":3461,"BSTAR":0.00021152707,"MEAN_MOTION_DOT":0.00002627,"MEAN_MOTION_DDOT":0},{"OBJECT_NAME":"ICEYE-X60","OBJECT_ID":"2025-276CR","EPOCH":"2026-07-16T04:38:00.420288","CLASSIFICATION_TYPE":"U","MEAN_MOTION":15.10856389,"ECCENTRICITY":0.00007318,"INCLINATION":97.4136,"RA_OF_ASC_NODE":269.0035,"ARG_OF_PERICENTER":149.8638,"MEAN_ANOMALY":210.2635,"EPHEMERIS_TYPE":0,"NORAD_CAT_ID":66753,"ELEMENT_SET_NO":999,"REV_AT_EPOCH":3474,"BSTAR":0.00013552478,"MEAN_MOTION_DOT":0.00002192,"MEAN_MOTION_DDOT":0},{"OBJECT_NAME":"ICEYE-X61","OBJECT_ID":"2025-276CS","EPOCH":"2026-07-16T03:42:04.907808","CLASSIFICATION_TYPE":"U","MEAN_MOTION":15.1861169,"ECCENTRICITY":0.00021682,"INCLINATION":97.4194,"RA_OF_ASC_NODE":270.1044,"ARG_OF_PERICENTER":211.0636,"MEAN_ANOMALY":149.047,"EPHEMERIS_TYPE":0,"NORAD_CAT_ID":66754,"ELEMENT_SET_NO":999,"REV_AT_EPOCH":3481,"BSTAR":0.000076982553,"MEAN_MOTION_DOT":0.00001526,"MEAN_MOTION_DDOT":0},{"OBJECT_NAME":"ICEYE-X62","OBJECT_ID":"2025-276CT","EPOCH":"2026-07-15T18:07:47.176896","CLASSIFICATION_TYPE":"U","MEAN_MOTION":15.10146432,"ECCENTRICITY":0.00008753,"INCLINATION":97.4198,"RA_OF_ASC_NODE":268.0683,"ARG_OF_PERICENTER":231.5661,"MEAN_ANOMALY":128.549,"EPHEMERIS_TYPE":0,"NORAD_CAT_ID":66755,"ELEMENT_SET_NO":999,"REV_AT_EPOCH":3464,"BSTAR":0.000077598831,"MEAN_MOTION_DOT":0.00001204,"MEAN_MOTION_DDOT":0},{"OBJECT_NAME":"ICEYE-X63","OBJECT_ID":"2026-004K","EPOCH":"2026-07-15T23:47:08.208672","CLASSIFICATION_TYPE":"U","MEAN_MOTION":14.88349834,"ECCENTRICITY":0.00053829,"INCLINATION":97.8015,"RA_OF_ASC_NODE":195.1818,"ARG_OF_PERICENTER":49.7418,"MEAN_ANOMALY":310.4269,"EPHEMERIS_TYPE":0,"NORAD_CAT_ID":67372,"ELEMENT_SET_NO":999,"REV_AT_EPOCH":2758,"BSTAR":0.000052627005,"MEAN_MOTION_DOT":0.00000433,"MEAN_MOTION_DDOT":0},{"OBJECT_NAME":"ICEYE-X64","OBJECT_ID":"2026-004L","EPOCH":"2026-07-16T07:24:53.692992","CLASSIFICATION_TYPE":"U","MEAN_MOTION":14.87988657,"ECCENTRICITY":0.00071979,"INCLINATION":97.8028,"RA_OF_ASC_NODE":195.4136,"ARG_OF_PERICENTER":51.1051,"MEAN_ANOMALY":309.0806,"EPHEMERIS_TYPE":0,"NORAD_CAT_ID":67373,"ELEMENT_SET_NO":999,"REV_AT_EPOCH":2762,"BSTAR":0.000069871891,"MEAN_MOTION_DOT":0.00000587,"MEAN_MOTION_DDOT":0},{"OBJECT_NAME":"ICEYE-X71","OBJECT_ID":"2026-067CG","EPOCH":"2026-07-14T08:41:36.635712","CLASSIFICATION_TYPE":"U","MEAN_MOTION":14.91790708,"ECCENTRICITY":0.00010685,"INCLINATION":97.7625,"RA_OF_ASC_NODE":153.1825,"ARG_OF_PERICENTER":349.9955,"MEAN_ANOMALY":10.1242,"EPHEMERIS_TYPE":0,"NORAD_CAT_ID":68494,"ELEMENT_SET_NO":999,"REV_AT_EPOCH":1577,"BSTAR":0.00015178176,"MEAN_MOTION_DOT":0.00001475,"MEAN_MOTION_DDOT":0},{"OBJECT_NAME":"ICEYE-X73","OBJECT_ID":"2026-067CJ","EPOCH":"2026-07-16T03:12:17.106912","CLASSIFICATION_TYPE":"U","MEAN_MOTION":14.92350684,"ECCENTRICITY":0.00015644,"INCLINATION":97.7623,"RA_OF_ASC_NODE":155.0139,"ARG_OF_PERICENTER":147.155,"MEAN_ANOMALY":212.9766,"EPHEMERIS_TYPE":0,"NORAD_CAT_ID":68496,"ELEMENT_SET_NO":999,"REV_AT_EPOCH":1604,"BSTAR":0.000099170214,"MEAN_MOTION_DOT":0.00000958,"MEAN_MOTION_DDOT":0},{"OBJECT_NAME":"ICEYE-X75","OBJECT_ID":"2026-067CK","EPOCH":"2026-07-15T20:52:38.859744","CLASSIFICATION_TYPE":"U","MEAN_MOTION":14.92174355,"ECCENTRICITY":0.0001513,"INCLINATION":97.7606,"RA_OF_ASC_NODE":154.7207,"ARG_OF_PERICENTER":143.961,"MEAN_ANOMALY":216.1711,"EPHEMERIS_TYPE":0,"NORAD_CAT_ID":68497,"ELEMENT_SET_NO":999,"REV_AT_EPOCH":1600,"BSTAR":0.000035746,"MEAN_MOTION_DOT":0.00000308,"MEAN_MOTION_DDOT":0},{"OBJECT_NAME":"ICEYE-X74","OBJECT_ID":"2026-067CN","EPOCH":"2026-07-15T10:25:46.197408","CLASSIFICATION_TYPE":"U","MEAN_MOTION":14.91793727,"ECCENTRICITY":0.00008098,"INCLINATION":97.7633,"RA_OF_ASC_NODE":154.2488,"ARG_OF_PERICENTER":341.6467,"MEAN_ANOMALY":18.4722,"EPHEMERIS_TYPE":0,"NORAD_CAT_ID":68500,"ELEMENT_SET_NO":999,"REV_AT_EPOCH":1593,"BSTAR":0.00014399556,"MEAN_MOTION_DOT":0.00001396,"MEAN_MOTION_DDOT":0},{"OBJECT_NAME":"ICEYE-X76","OBJECT_ID":"2026-067CQ","EPOCH":"2026-07-15T19:59:24.345024","CLASSIFICATION_TYPE":"U","MEAN_MOTION":14.91751586,"ECCENTRICITY":0.00005174,"INCLINATION":97.764,"RA_OF_ASC_NODE":154.6594,"ARG_OF_PERICENTER":310.0515,"MEAN_ANOMALY":50.0658,"EPHEMERIS_TYPE":0,"NORAD_CAT_ID":68502,"ELEMENT_SET_NO":999,"REV_AT_EPOCH":1599,"BSTAR":0.000070270824,"MEAN_MOTION_DOT":0.00000652,"MEAN_MOTION_DDOT":0}]}
